OBJECT_NAME,OBJECT_ID,EPOCH,MEAN_MOTION,ECCENTRICITY,INCLINATION,RA_OF_ASC_NODE,ARG_OF_PERICENTER,MEAN_ANOMALY,EPHEMERIS_TYPE,CLASSIFICATION_TYPE,NORAD_CAT_ID,ELEMENT_SET_NO,REV_AT_EPOCH,BSTAR,MEAN_MOTION_DOT,MEAN_MOTION_DDOT
GJZ 03,2024-238C,2026-06-26T03:23:38.069376,13.75208437,.0019094,59.9126,243.9132,8.1940,351.9376,0,U,62292,999,7712,.79809E-4,-.42E-6,0
GJZ 04,2024-238D,2026-06-26T03:29:54.777696,13.75201109,.0015079,59.9126,243.9386,20.4051,339.7556,0,U,62293,999,7714,.81988E-4,-.4E-6,0
GJZ 05,2024-238E,2026-06-26T03:26:59.091936,13.75192787,.0016671,59.9111,243.8684,18.7454,341.4164,0,U,62294,999,7714,.57799E-4,-.63E-6,0
STARLINK-32648,2024-239A,2026-06-25T21:13:02.514432,15.34408865,.0001023,53.1607,38.2581,80.5181,279.5937,0,U,62301,999,8613,.11792E-2,.39688E-3,0
STARLINK-32594,2024-239B,2026-06-25T21:46:27.806592,15.34405157,.0001278,53.1596,48.1971,106.1443,253.9700,0,U,62302,999,8599,.9298E-3,.31174E-3,0
STARLINK-32621,2024-239C,2026-06-25T21:23:10.962240,15.33531181,.0001377,53.1599,38.2999,23.6412,336.4653,0,U,62303,999,8613,.82066E-3,.26698E-3,0
STARLINK-32597,2024-239D,2026-06-25T21:40:18.568416,15.34411463,.000081,53.1576,38.3741,56.1997,303.9082,0,U,62304,999,8613,.84606E-3,.28328E-3,0
STARLINK-32649,2024-239E,2026-06-25T21:17:00.016800,15.34414811,.0001119,53.1587,50.3515,84.6145,275.4985,0,U,62305,999,8596,.11439E-2,.38489E-3,0
STARLINK-32633,2024-239F,2026-06-25T22:14:33.816192,15.34411750,.0001377,53.1607,50.5950,114.5334,245.5812,0,U,62306,999,8596,.53252E-3,.17665E-3,0
STARLINK-32646,2024-239G,2026-06-25T21:25:45.168096,15.30207202,.0001117,53.1594,38.3095,102.6294,257.4832,0,U,62307,999,8613,.10671E-2,.31387E-3,0
STARLINK-32706,2024-239H,2026-06-25T22:29:42.453024,15.34397279,.0001279,53.1602,50.6639,84.5403,275.5745,0,U,62308,999,8596,.76617E-3,.25596E-3,0
STARLINK-32678,2024-239J,2026-06-25T23:44:49.211808,15.35051175,.0001591,53.1583,37.4878,192.2385,167.8579,0,U,62309,999,8615,.13462E-2,.46345E-3,0
STARLINK-32696,2024-239K,2026-06-25T22:38:40.589376,15.34405278,.0001239,53.1595,49.9954,82.2343,277.8801,0,U,62310,999,8597,.67079E-3,.22359E-3,0
STARLINK-32700,2024-239L,2026-06-25T21:31:13.116576,15.34406026,.0000574,53.1606,38.3337,88.3975,271.7093,0,U,62311,999,8612,.47988E-3,.15875E-3,0
STARLINK-32698,2024-239M,2026-06-25T22:59:52.901088,15.34425397,.0001002,53.1592,50.0814,151.2505,208.8553,0,U,62312,999,8597,.81487E-3,.27278E-3,0
STARLINK-32634,2024-239N,2026-06-26T03:45:43.131744,15.31865098,.0002427,53.1605,37.1127,145.3175,214.7985,0,U,62313,999,8617,.22579E-1,.757773E-2,0
STARLINK-32651,2024-239P,2026-06-25T22:23:39.282720,15.34419129,.0001071,53.1601,50.6310,99.5778,260.5346,0,U,62314,999,8596,.78445E-3,.26236E-3,0
STARLINK-32627,2024-239Q,2026-06-25T22:20:37.408992,15.34408595,.0001205,53.1594,50.5778,70.7452,289.3681,0,U,62315,999,8596,.10722E-2,.36034E-3,0
STARLINK-32596,2024-239R,2026-06-25T22:44:44.042208,15.34420387,.0000873,53.1582,50.0179,120.2235,239.8854,0,U,62316,999,8597,.13022E-2,.43906E-3,0
STARLINK-32519,2024-239S,2026-06-25T20:49:29.953920,15.31727788,.0001063,53.1608,38.1505,99.2289,260.8833,0,U,62317,999,8613,.10953E-2,.33808E-3,0
STARLINK-32527,2024-239U,2026-06-25T22:30:11.295072,15.31718347,.0001285,53.1613,37.8759,69.7666,290.3474,0,U,62319,999,8614,.11831E-2,.3655E-3,0
STARLINK-32481,2024-239V,2026-06-25T19:47:08.553984,15.30271605,.0000852,53.1592,38.5914,63.4586,296.6502,0,U,62320,999,8612,.13574E-2,.40149E-3,0
STARLINK-32645,2024-239W,2026-06-25T21:27:16.545600,15.30208599,.0001125,53.1590,38.3165,56.1697,303.9411,0,U,62321,999,8613,.91097E-3,.26725E-3,0
STARLINK-32654,2024-239X,2026-06-25T22:41:42.395712,15.34414394,.0001049,53.1582,50.0019,109.0324,251.0792,0,U,62322,999,8597,.13273E-2,.44756E-3,0
HULIANWANG DIGUI-01,2024-240A,2026-06-26T03:21:06.232608,13.24410873,.0001685,86.5000,340.2168,103.9402,256.1920,0,U,62323,999,7382,.32234E-4,.28E-6,0
HULIANWANG DIGUI-02,2024-240B,2026-06-26T03:31:50.778336,13.24410851,.000167,86.5029,340.3760,102.7540,257.3781,0,U,62324,999,7383,.37966E-4,.31E-6,0
HULIANWANG DIGUI-03,2024-240C,2026-06-26T03:10:10.052256,13.24409510,.0001758,86.4982,340.1199,103.5384,256.5946,0,U,62325,999,7382,.26597E-4,.26E-6,0
HULIANWANG DIGUI-04,2024-240D,2026-06-26T04:48:06.529248,13.24409778,.0001839,86.4992,340.1386,106.7329,253.4007,0,U,62326,999,7383,.28299E-4,.27E-6,0
HULIANWANG DIGUI-05,2024-240E,2026-06-26T04:37:14.735424,13.24410379,.0001937,86.5044,340.4175,105.8342,254.3005,0,U,62327,999,7383,.50579E-4,.36E-6,0
HULIANWANG DIGUI-06,2024-240F,2026-06-26T04:15:26.209152,13.24407848,.0001711,86.4982,340.0736,108.9104,251.2216,0,U,62328,999,7383,.10913E-3,.61E-6,0
HULIANWANG DIGUI-07,2024-240G,2026-06-26T04:04:35.350176,13.24410258,.0001724,86.4952,339.9122,105.0767,255.0558,0,U,62329,999,7383,.97338E-4,.56E-6,0
HULIANWANG DIGUI-08,2024-240H,2026-06-26T04:26:22.100928,13.24410573,.0001979,86.5035,340.3682,107.6004,252.5347,0,U,62330,999,7383,.90737E-4,.54E-6,0
HULIANWANG DIGUI-09,2024-240J,2026-06-26T03:53:41.525088,13.24409222,.0001746,86.5001,340.2339,102.9873,257.1456,0,U,62331,999,7382,.92102E-4,.54E-6,0
HULIANWANG DIGUI-10,2024-240K,2026-06-26T03:42:50.107968,13.24410040,.0001721,86.5031,340.3920,107.0970,253.0353,0,U,62332,999,7382,.76398E-4,.47E-6,0
PIESAT-2 09,2024-241A,2026-06-26T04:56:17.448000,15.14310539,.0002413,97.5293,124.7790,92.5040,267.6468,0,U,62333,999,8416,.5612E-3,.10218E-3,0
PIESAT-2 10,2024-241B,2026-06-26T03:48:43.260192,15.14344757,.0001847,97.5333,125.1257,84.8198,275.3245,0,U,62334,999,8416,.4925E-3,.8966E-4,0
PIESAT-2 11,2024-241C,2026-06-26T04:09:29.665728,15.14128191,.0001446,97.5279,124.6161,81.0816,279.0579,0,U,62335,999,8417,.48333E-3,.8744E-4,0
PIESAT-2 12,2024-241D,2026-06-26T04:32:08.228832,15.14234974,.0001753,97.5237,124.5689,101.2359,258.9070,0,U,62336,999,8416,.50898E-3,.924E-4,0
NAVSTAR 83 (USA 440),2024-242A,2026-06-26T01:37:41.317248,2.00572026,.0017666,54.8454,333.8210,4.5395,177.0108,0,U,62339,999,1143,0,-.106E-5,0
O3B MPOWER F7,2024-244A,2026-06-24T11:19:04.448928,5.00115323,.00060249,0.0674,346.8339,102.8971,270.3371,0,U,62362,999,2689,0,-.22E-6,0
O3B MPOWER F8,2024-244B,2026-06-25T15:18:31.351104,5.00115193,.0005889,0.0150,341.1498,102.6829,276.2336,0,U,62363,999,2129,0,-.22E-6,0
TIANQI-33,2024-245A,2026-06-26T03:52:44.932224,13.99212346,.0006439,44.9841,282.1000,60.3173,299.8301,0,U,62365,999,7761,.13263E-3,.65E-6,0
TIANQI-34,2024-245B,2026-06-26T03:29:36.536064,13.99222416,.0003369,44.9807,281.8631,75.8015,284.3192,0,U,62366,999,7758,.13702E-3,.71E-6,0
TIANQI-35,2024-245C,2026-06-26T03:02:45.798144,13.99198232,.0008621,44.9854,281.9471,45.5595,314.5942,0,U,62367,999,7759,.13349E-3,.66E-6,0
TIANQI-36,2024-245D,2026-06-26T02:34:35.505696,13.99224096,.0006914,44.9851,281.8180,58.5661,301.5847,0,U,62368,999,7759,.1303E-3,.62E-6,0
TJS-12,2024-246A,2026-06-24T18:47:39.350112,1.00268446,.00021091,0.6533,299.9327,91.7487,309.6330,0,U,62374,999,564,0,-.223E-5,0
KORSAT-2,2024-247A,2026-06-24T23:51:19.330272,14.98758889,.00043712,45.4102,27.3457,254.1070,105.9326,0,U,62377,999,8273,.29996844E-3,.3439E-4,0
TANSTAAFL-2,2024-247B,2026-06-25T13:49:04.280736,15.29861780,.0002798,44.9877,246.6264,295.3791,64.6803,0,U,62378,999,8424,.27167E-3,.7712E-4,0
HAWK-11B,2024-247C,2026-06-25T12:36:04.605120,15.30434276,.0005049,45.0146,244.0208,279.5912,80.4402,0,U,62379,999,8428,.27396E-3,.7923E-4,0
BANDWAGON-2 OBJECT D,2024-247D,2026-06-25T13:40:17.138784,15.31061820,.0005048,44.9954,243.4978,303.9977,56.0427,0,U,62380,999,8428,.32106E-3,.9529E-4,0
HAWK-11C,2024-247E,2026-06-25T15:43:25.353984,15.30432762,.0005774,45.0032,242.6601,270.3489,89.6733,0,U,62381,999,8430,.26281E-3,.7588E-4,0
HAWK-11A,2024-247F,2026-06-25T15:43:32.738592,15.30429772,.0005236,44.9924,242.0076,271.2905,88.7379,0,U,62382,999,8430,.25342E-3,.7305E-4,0
LIZZIESAT-2 (LS-2),2024-247G,2026-06-25T14:34:30.050400,15.29978550,.0003586,44.9910,245.3802,280.8843,79.1637,0,U,62383,999,8426,.30857E-3,.8835E-4,0
ICEYE-X49,2024-247H,2026-06-24T16:41:39.821856,15.13041259,.00012845,44.9989,317.3100,270.0776,89.9954,0,U,62384,999,8331,.22686445E-3,.3823E-4,0
BANDWAGON-2 OBJECT J,2024-247J,2026-06-25T12:04:48.329760,15.52043914,.000799,44.9979,204.7790,354.9522,5.1288,0,U,62385,999,8474,.8123E-3,.50122E-3,0
TOMORROW-S4,2024-247K,2026-06-25T13:30:52.102656,15.29220089,.000234,44.9813,247.2317,66.0518,294.0610,0,U,62386,999,8423,.23367E-3,.6456E-4,0
BANDWAGON-2 OBJECT L,2024-247L,2026-06-25T11:23:02.446368,15.53957716,.0008228,44.9884,201.6465,7.7239,352.3779,0,U,62387,999,8477,.85548E-3,.56672E-3,0
GITAI-SC1,2024-247M,2026-06-25T14:03:33.723072,15.21471544,.0001415,45.0025,266.2234,283.7917,76.2806,0,U,62388,999,8401,.27921E-3,.6117E-4,0
ICEYE-X47,2024-247N,2026-06-25T17:26:13.654752,15.13349791,.0002573,44.9969,311.3876,276.4443,83.6142,0,U,62389,999,8347,.33244E-3,.5774E-4,0
LASARSAT,2024-247Q,2026-06-26T03:32:53.932416,15.46870082,.0007193,44.9730,211.8425,25.3187,334.8054,0,U,62391,999,8470,.65183E-3,.33317E-3,0
TOMORROW-S3,2024-247R,2026-06-25T15:53:52.128096,15.29173026,.0002514,44.9999,246.7309,330.0642,30.0098,0,U,62392,999,8425,.26966E-3,.7487E-4,0
CROCUBE,2024-247T,2026-06-24T09:26:02.551776,15.48681185,.00072263,44.9701,218.9251,18.8099,341.3058,0,U,62394,999,8446,.56516968E-3,.30725E-3,0
BANDWAGON-2 OBJECT U,2024-247U,2026-06-25T12:58:54.560928,15.48583284,.0007063,44.9924,209.1473,341.5191,18.5442,0,U,62395,999,8469,.693E-3,.37662E-3,0
BANDWAGON-2 OBJECT V,2024-247V,2026-06-24T09:04:29.244000,15.53271889,.00084841,44.9913,208.8069,356.9068,3.1771,0,U,62396,999,8459,.59443031E-3,.38192E-3,0
BANDWAGON-2 OBJECT Y,2024-247Y,2026-06-25T22:28:00.323040,15.49270377,.00069,44.9944,206.2632,344.5138,15.5541,0,U,62399,999,8476,.65936E-3,.36691E-3,0
XCUBE-1,2024-247Z,2026-06-25T13:17:02.336928,15.29718415,.0004726,44.9948,246.6219,273.1297,86.9046,0,U,62400,999,8424,.29668E-3,.8413E-4,0
